COMMENT,ORIGINATOR,NORAD_CAT_ID,OBJECT_NAME,OBJECT_TYPE,CLASSIFICATION_TYPE,INTLDES,EPOCH,EPOCH_MICROSECONDS,MEAN_MOTION,ECCENTRICITY,INCLINATION,RA_OF_ASC_NODE,ARG_OF_PERICENTER,MEAN_ANOMALY,EPHEMERIS_TYPE,ELEMENT_SET_NO,REV_AT_EPOCH,BSTAR,MEAN_MOTION_DOT,MEAN_MOTION_DDOT,FILE,TLE_LINE0,TLE_LINE1,TLE_LINE2,OBJECT_ID,OBJECT_NUMBER,SEMIMAJOR_AXIS,PERIOD,APOGEE,PERIGEE,DECAYED,date
GENERATED VIA SPACETRACK.ORG API,18 SPCS,48897,SPACEBEE-109,PAYLOAD,U,21059U,2023/2/6 7:59,857792,15.22722503,0.0008463,97.5797,172.3723,8.2772,351.8602,0,999,8943,0.0011721,0.00027368,0,3775254,0 SPACEBEE-109,1 48897U 21059U   23037.33311178  .00027368  00000-0  11721-2 0  9995,2 48897  97.5797 172.3723 0008463   8.2772 351.8602 15.22722503 89432,2021-059U,48897,6875.77,94.567,503.454,491.816,0,2023/3/11
GENERATED VIA SPACETRACK.ORG API,18 SPCS,48897,SPACEBEE-109,PAYLOAD,U,21059U,2023/2/6 7:59,857792,15.22722503,0.0008463,97.5797,172.3723,8.2772,351.8602,0,999,8943,0.0011721,0.00027368,0,3775514,0 SPACEBEE-109,1 48897U 21059U   23037.33311178  .00027368  00000-0  11721-2 0  9995,2 48897  97.5797 172.3723 0008463   8.2772 351.8602 15.22722503 89432,2021-059U,48897,6875.77,94.567,503.454,491.816,0,2023/3/12
GENERATED VIA SPACETRACK.ORG API,18 SPCS,48897,SPACEBEE-109,PAYLOAD,U,21059U,2023/2/6 20:36,723136,15.22752225,0.0008397,97.5799,172.9025,6.373,353.7612,0,999,8951,0.0012093,0.00028266,0,3776034,0 SPACEBEE-109,1 48897U 21059U   23037.85881624  .00028266  00000-0  12093-2 0  9991,2 48897  97.5799 172.9025 0008397   6.3730 353.7612 15.22752225 89519,2021-059U,48897,6875.68,94.566,503.319,491.772,0,2023/3/13
GENERATED VIA SPACETRACK.ORG API,18 SPCS,48897,SPACEBEE-109,PAYLOAD,U,21059U,2023/2/7 7:39,145472,15.22784671,0.0008469,97.58,173.3669,4.6555,355.4758,0,999,8958,0.001433,0.00033565,0,3777208,0 SPACEBEE-109,1 48897U 21059U   23038.31879798  .00033565  00000-0  14330-2 0  9996,2 48897  97.5800 173.3669 0008469   4.6555 355.4758 15.22784671 89584,2021-059U,48897,6875.583,94.564,503.271,491.625,0,2023/3/14
GENERATED VIA SPACETRACK.ORG API,18 SPCS,48897,SPACEBEE-109,PAYLOAD,U,21059U,2023/2/7 7:39,145472,15.22784671,0.0008469,97.58,173.3669,4.6555,355.4758,0,999,8958,0.001433,0.00033565,0,3777521,0 SPACEBEE-109,1 48897U 21059U   23038.31879798  .00033565  00000-0  14330-2 0  9996,2 48897  97.5800 173.3669 0008469   4.6555 355.4758 15.22784671 89584,2021-059U,48897,6875.583,94.564,503.271,491.625,0,2023/3/15
GENERATED VIA SPACETRACK.ORG API,18 SPCS,48897,SPACEBEE-109,PAYLOAD,U,21059U,2023/2/7 21:50,259616,15.22826348,0.0008412,97.5802,173.9634,2.7282,357.3998,0,999,8967,0.0013861,0.00032499,0,3777976,0 SPACEBEE-109,1 48897U 21059U   23038.91018819  .00032499  00000-0  13861-2 0  9994,2 48897  97.5802 173.9634 0008412   2.7282 357.3998 15.22826348 89673,2021-059U,48897,6875.457,94.561,503.106,491.539,0,2023/3/16
GENERATED VIA SPACETRACK.ORG API,18 SPCS,48897,SPACEBEE-109,PAYLOAD,U,21059U,2023/2/8 7:18,484672,15.22858568,0.0008443,97.5801,174.3612,1.5625,358.5636,0,999,8973,0.0015184,0.00035657,0,3780324,0 SPACEBEE-109,1 48897U 21059U   23039.30443848  .00035657  00000-0  15184-2 0  9991,2 48897  97.5801 174.3612 0008443   1.5625 358.5636 15.22858568 89733,2021-059U,48897,6875.36,94.559,503.03,491.42,0,2023/3/17
GENERATED VIA SPACETRACK.ORG API,18 SPCS,48897,SPACEBEE-109,PAYLOAD,U,21059U,2023/2/8 7:18,484672,15.22858568,0.0008443,97.5801,174.3612,1.5625,358.5636,0,999,8973,0.0015184,0.00035657,0,3780407,0 SPACEBEE-109,1 48897U 21059U   23039.30443848  .00035657  00000-0  15184-2 0  9991,2 48897  97.5801 174.3612 0008443   1.5625 358.5636 15.22858568 89733,2021-059U,48897,6875.36,94.559,503.03,491.42,0,2023/3/18
GENERATED VIA SPACETRACK.ORG API,18 SPCS,48897,SPACEBEE-109,PAYLOAD,U,21059U,2023/2/8 21:29,85440,15.22903834,0.0008422,97.5803,174.9579,359.3502,0.7721,0,999,8982,0.0015323,0.00036034,0,3780893,0 SPACEBEE-109,1 48897U 21059U   23039.89579960  .00036034  00000-0  15323-2 0  9995,2 48897  97.5803 174.9579 0008422 359.3502   0.7721 15.22903834 89826,2021-059U,48897,6875.224,94.556,502.879,491.299,0,2023/3/19
GENERATED VIA SPACETRACK.ORG API,18 SPCS,48897,SPACEBEE-109,PAYLOAD,U,21059U,2023/2/9 8:32,496224,15.22940863,0.000843,97.5802,175.422,357.9982,2.1218,0,999,8989,0.0016429,0.00038696,0,3782313,0 SPACEBEE-109,1 48897U 21059U   23040.35573491  .00038696  00000-0  16429-2 0  9995,2 48897  97.5802 175.4220 0008430 357.9982   2.1218 15.22940863 89896,2021-059U,48897,6875.113,94.554,502.773,491.182,0,2023/3/20
GENERATED VIA SPACETRACK.ORG API,18 SPCS,48897,SPACEBEE-109,PAYLOAD,U,21059U,2023/2/9 14:50,728640,15.22961986,0.0008417,97.5803,175.6872,356.9355,3.1828,0,999,8993,0.0016931,0.00039912,0,3782624,0 SPACEBEE-109,1 48897U 21059U   23040.61855010  .00039912  00000-0  16931-2 0  9994,2 48897  97.5803 175.6872 0008417 356.9355   3.1828 15.22961986 89932,2021-059U,48897,6875.049,94.553,502.701,491.127,0,2023/3/21
GENERATED VIA SPACETRACK.ORG API,18 SPCS,48897,SPACEBEE-109,PAYLOAD,U,21059U,2023/2/9 19:34,962656,15.22976451,0.0008415,97.5803,175.8861,356.146,3.971,0,999,8996,0.0015977,0.00037664,0,3783241,0 SPACEBEE-109,1 48897U 21059U   23040.81565929  .00037664  00000-0  15977-2 0  9994,2 48897  97.5803 175.8861 0008415 356.1460   3.9710 15.22976451 89963,2021-059U,48897,6875.005,94.552,502.656,491.085,0,2023/3/22
GENERATED VIA SPACETRACK.ORG API,18 SPCS,48897,SPACEBEE-109,PAYLOAD,U,21059U,2023/2/9 22:43,320096,15.22988829,0.0008454,97.5804,176.0186,355.4893,4.6266,0,999,8998,0.0016927,0.00039935,0,3784184,0 SPACEBEE-109,1 48897U 21059U   23040.94706389  .00039935  00000-0  16927-2 0  9994,2 48897  97.5804 176.0186 0008454 355.4893   4.6266 15.22988829 89980,2021-059U,48897,6874.968,94.551,502.645,491.021,0,2023/3/23
GENERATED VIA SPACETRACK.ORG API,18 SPCS,48897,SPACEBEE-109,PAYLOAD,U,21059U,2023/2/10 14:29,991872,15.23042875,0.0008476,97.5803,176.6818,352.8141,7.2972,0,999,9008,0.0017365,0.00041042,0,3785071,0 SPACEBEE-109,1 48897U 21059U   23041.60407398  .00041042  00000-0  17365-2 0  9995,2 48897  97.5803 176.6818 0008476 352.8141   7.2972 15.23042875 90087,2021-059U,48897,6874.806,94.548,502.498,490.844,0,2023/3/24
GENERATED VIA SPACETRACK.ORG API,18 SPCS,48897,SPACEBEE-109,PAYLOAD,U,21059U,2023/2/10 22:22,29856,15.23071603,0.0008481,97.5801,177.0134,351.55,8.5592,0,999,9013,0.0017261,0.00040829,0,3785203,0 SPACEBEE-109,1 48897U 21059U   23041.93256979  .00040829  00000-0  17261-2 0  9995,2 48897  97.5801 177.0134 0008481 351.5500   8.5592 15.23071603 90131,2021-059U,48897,6874.719,94.546,502.415,490.754,0,2023/3/25
GENERATED VIA SPACETRACK.ORG API,18 SPCS,48897,SPACEBEE-109,PAYLOAD,U,21059U,2023/2/11 14:08,525568,15.23129715,0.0008506,97.5799,177.6767,349.0511,11.0539,0,999,9023,0.0018288,0.00043352,0,3786144,0 SPACEBEE-109,1 48897U 21059U   23042.58954312  .00043352  00000-0  18288-2 0  9997,2 48897  97.5799 177.6767 0008506 349.0511  11.0539 15.23129715 90236,2021-059U,48897,6874.544,94.542,502.257,490.562,0,2023/3/26
GENERATED VIA SPACETRACK.ORG API,18 SPCS,48897,SPACEBEE-109,PAYLOAD,U,21059U,2023/2/11 20:27,896416,15.23153228,0.000849,97.5795,177.9417,348.1369,11.9666,0,999,9027,0.0017572,0.00041671,0,3786577,0 SPACEBEE-109,1 48897U 21059U   23042.85232519  .00041671  00000-0  17572-2 0  9992,2 48897  97.5795 177.9417 0008490 348.1369  11.9666 15.23153228 90270,2021-059U,48897,6874.474,94.541,502.175,490.502,0,2023/3/27
GENERATED VIA SPACETRACK.ORG API,18 SPCS,48897,SPACEBEE-109,PAYLOAD,U,21059U,2023/2/12 4:20,914368,15.23180498,0.0008519,97.5801,178.2734,347.2575,12.8445,0,999,9032,0.0017398,0.00041289,0,3786733,0 SPACEBEE-109,1 48897U 21059U   23043.18079762  .00041289  00000-0  17398-2 0  9999,2 48897  97.5801 178.2734 0008519 347.2575  12.8445 15.23180498 90325,2021-059U,48897,6874.391,94.539,502.113,490.4,0,2023/3/28
GENERATED VIA SPACETRACK.ORG API,18 SPCS,48897,SPACEBEE-109,PAYLOAD,U,21059U,2023/2/12 7:29,775360,15.231916,0.0008514,97.58,178.4061,346.7292,13.3719,0,999,9034,0.0017017,0.00040392,0,3787692,0 SPACEBEE-109,1 48897U 21059U   23043.31218490  .00040392  00000-0  17017-2 0  9999,2 48897  97.5800 178.4061 0008514 346.7292  13.3719 15.23191600 90343,2021-059U,48897,6874.358,94.538,502.076,490.37,0,2023/3/29
GENERATED VIA SPACETRACK.ORG API,18 SPCS,48897,SPACEBEE-109,PAYLOAD,U,21059U,2023/2/13 7:08,166720,15.23273182,0.0008467,97.5797,179.4011,344.0367,16.0601,0,999,9049,0.0017032,0.00040525,0,3788874,0 SPACEBEE-109,1 48897U 21059U   23044.29755980  .00040525  00000-0  17032-2 0  9992,2 48897  97.5797 179.4011 0008467 344.0367  16.0601 15.23273182 90497,2021-059U,48897,6874.113,94.533,501.798,490.157,0,2023/3/30
GENERATED VIA SPACETRACK.ORG API,18 SPCS,48897,SPACEBEE-109,PAYLOAD,U,21059U,2023/2/13 15:01,983200,15.23297685,0.0008446,97.5797,179.7329,342.6778,17.4169,0,999,9054,0.0016044,0.00038186,0,3789366,0 SPACEBEE-109,1 48897U 21059U   23044.62600675  .00038186  00000-0  16044-2 0  9991,2 48897  97.5797 179.7329 0008446 342.6778  17.4169 15.23297685 90543,2021-059U,48897,6874.039,94.532,501.71,490.098,0,2023/3/31
GENERATED VIA SPACETRACK.ORG API,18 SPCS,48897,SPACEBEE-109,PAYLOAD,U,21059U,2023/2/14 6:47,215616,15.23349457,0.0008462,97.5794,180.3964,340.0483,20.0422,0,999,9064,0.0016733,0.00039899,0,3791349,0 SPACEBEE-109,1 48897U 21059U   23045.28288444  .00039899  00000-0  16733-2 0  9997,2 48897  97.5794 180.3964 0008462 340.0483  20.0422 15.23349457 90644,2021-059U,48897,6873.883,94.529,501.565,489.931,0,2023/4/1
GENERATED VIA SPACETRACK.ORG API,18 SPCS,48897,SPACEBEE-109,PAYLOAD,U,21059U,2023/2/15 8:00,218368,15.23429145,0.0008483,97.5791,181.4579,336.0903,23.9938,0,999,9080,0.0017013,0.00040668,0,3793037,0 SPACEBEE-109,1 48897U 21059U   23046.33384512  .00040668  00000-0  17013-2 0  9995,2 48897  97.5791 181.4579 0008483 336.0903  23.9938 15.23429145 90805,2021-059U,48897,6873.643,94.524,501.339,489.678,0,2023/4/2
